CCSDS_OMM_VERS = 2.0
CREATION_DATE  = 
ORIGINATOR     = 

OBJECT_NAME    = UNKNOWN
OBJECT_ID      = 
CENTER_NAME    = EARTH
REF_FRAME      = TEME
TIME_SYSTEM    = UTC
MEAN_ELEMENT_THEORY = SGP/SGP4

EPOCH          = 2026-01-21T16:19:43.536000
MEAN_MOTION    = 12.94307255
ECCENTRICITY   = .00288423
INCLINATION    = 90.2461
RA_OF_ASC_NODE = 3.0113
ARG_OF_PERICENTER = 277.5720
MEAN_ANOMALY   = 82.2123

EPHEMERIS_TYPE = 0
CLASSIFICATION_TYPE = U
NORAD_CAT_ID   = 270241
ELEMENT_SET_NO = 999
REV_AT_EPOCH   = 28175
BSTAR          = .11463455E-2
MEAN_MOTION_DOT = .326E-5
MEAN_MOTION_DDOT = 0

CCSDS_OMM_VERS = 2.0
CREATION_DATE  = 
ORIGINATOR     = 

OBJECT_NAME    = UNKNOWN
OBJECT_ID      = 
CENTER_NAME    = EARTH
REF_FRAME      = TEME
TIME_SYSTEM    = UTC
MEAN_ELEMENT_THEORY = SGP/SGP4

EPOCH          = 2026-01-16T04:58:56.186400
MEAN_MOTION    = 12.98543506
ECCENTRICITY   = .00456396
INCLINATION    = 90.2381
RA_OF_ASC_NODE = 4.1194
ARG_OF_PERICENTER = 48.5979
MEAN_ANOMALY   = 311.9051

EPHEMERIS_TYPE = 0
CLASSIFICATION_TYPE = U
NORAD_CAT_ID   = 270242
ELEMENT_SET_NO = 999
REV_AT_EPOCH   = 28172
BSTAR          = -.51766197E-3
MEAN_MOTION_DOT = -.145E-5
MEAN_MOTION_DDOT = 0

CCSDS_OMM_VERS = 2.0
CREATION_DATE  = 
ORIGINATOR     = 

OBJECT_NAME    = UNKNOWN
OBJECT_ID      = 
CENTER_NAME    = EARTH
REF_FRAME      = TEME
TIME_SYSTEM    = UTC
MEAN_ELEMENT_THEORY = SGP/SGP4

EPOCH          = 2026-01-15T00:05:20.905152
MEAN_MOTION    = 11.23973987
ECCENTRICITY   = .07973973
INCLINATION    = 102.1052
RA_OF_ASC_NODE = 93.9176
ARG_OF_PERICENTER = 146.4331
MEAN_ANOMALY   = 218.9904

EPHEMERIS_TYPE = 0
CLASSIFICATION_TYPE = U
NORAD_CAT_ID   = 270245
ELEMENT_SET_NO = 999
REV_AT_EPOCH   = 2195
BSTAR          = -.3963085E-1
MEAN_MOTION_DOT = -.2628E-4
MEAN_MOTION_DDOT = 0

CCSDS_OMM_VERS = 2.0
CREATION_DATE  = 
ORIGINATOR     = 

OBJECT_NAME    = UNKNOWN
OBJECT_ID      = 
CENTER_NAME    = EARTH
REF_FRAME      = TEME
TIME_SYSTEM    = UTC
MEAN_ELEMENT_THEORY = SGP/SGP4

EPOCH          = 2026-01-24T11:57:21.891456
MEAN_MOTION    = 10.71376067
ECCENTRICITY   = .09902252
INCLINATION    = 101.9107
RA_OF_ASC_NODE = 296.8012
ARG_OF_PERICENTER = 181.7685
MEAN_ANOMALY   = 177.9646

EPHEMERIS_TYPE = 0
CLASSIFICATION_TYPE = U
NORAD_CAT_ID   = 270246
ELEMENT_SET_NO = 999
REV_AT_EPOCH   = 23434
BSTAR          = -.14915359E-1
MEAN_MOTION_DOT = -.688E-5
MEAN_MOTION_DDOT = 0

CCSDS_OMM_VERS = 2.0
CREATION_DATE  = 
ORIGINATOR     = 

OBJECT_NAME    = UNKNOWN
OBJECT_ID      = 
CENTER_NAME    = EARTH
REF_FRAME      = TEME
TIME_SYSTEM    = UTC
MEAN_ELEMENT_THEORY = SGP/SGP4

EPOCH          = 2026-01-26T04:48:13.798080
MEAN_MOTION    = 12.78821036
ECCENTRICITY   = .00692783
INCLINATION    = 66.0633
RA_OF_ASC_NODE = 236.2760
ARG_OF_PERICENTER = 2.9549
MEAN_ANOMALY   = 357.1861

EPHEMERIS_TYPE = 0
CLASSIFICATION_TYPE = U
NORAD_CAT_ID   = 270247
ELEMENT_SET_NO = 999
REV_AT_EPOCH   = 27773
BSTAR          = .13324538E-2
MEAN_MOTION_DOT = .241E-5
MEAN_MOTION_DDOT = 0

CCSDS_OMM_VERS = 2.0
CREATION_DATE  = 
ORIGINATOR     = 

OBJECT_NAME    = UNKNOWN
OBJECT_ID      = 
CENTER_NAME    = EARTH
REF_FRAME      = TEME
TIME_SYSTEM    = UTC
MEAN_ELEMENT_THEORY = SGP/SGP4

EPOCH          = 2026-01-17T02:39:50.796576
MEAN_MOTION    = 12.25504563
ECCENTRICITY   = .00248833
INCLINATION    = 82.4614
RA_OF_ASC_NODE = 312.4214
ARG_OF_PERICENTER = 353.7451
MEAN_ANOMALY   = 6.3305

EPHEMERIS_TYPE = 0
CLASSIFICATION_TYPE = U
NORAD_CAT_ID   = 270248
ELEMENT_SET_NO = 999
REV_AT_EPOCH   = 26393
BSTAR          = .38295396E-2
MEAN_MOTION_DOT = .434E-5
MEAN_MOTION_DDOT = 0

CCSDS_OMM_VERS = 2.0
CREATION_DATE  = 
ORIGINATOR     = 

OBJECT_NAME    = UNKNOWN
OBJECT_ID      = 
CENTER_NAME    = EARTH
REF_FRAME      = TEME
TIME_SYSTEM    = UTC
MEAN_ELEMENT_THEORY = SGP/SGP4

EPOCH          = 2026-01-25T16:12:20.573568
MEAN_MOTION    = 12.95399550
ECCENTRICITY   = .00269135
INCLINATION    = 90.2398
RA_OF_ASC_NODE = 3.3355
ARG_OF_PERICENTER = 211.8510
MEAN_ANOMALY   = 148.0984

EPHEMERIS_TYPE = 0
CLASSIFICATION_TYPE = U
NORAD_CAT_ID   = 270249
ELEMENT_SET_NO = 999
REV_AT_EPOCH   = 28013
BSTAR          = .11074034E-2
MEAN_MOTION_DOT = .32E-5
MEAN_MOTION_DDOT = 0

CCSDS_OMM_VERS = 2.0
CREATION_DATE  = 
ORIGINATOR     = 

OBJECT_NAME    = UNKNOWN
OBJECT_ID      = 
CENTER_NAME    = EARTH
REF_FRAME      = TEME
TIME_SYSTEM    = UTC
MEAN_ELEMENT_THEORY = SGP/SGP4

EPOCH          = 2026-01-10T07:31:55.769088
MEAN_MOTION    = 12.59682885
ECCENTRICITY   = .01830365
INCLINATION    = 82.4539
RA_OF_ASC_NODE = 233.8773
ARG_OF_PERICENTER = 256.4114
MEAN_ANOMALY   = 101.6530

EPHEMERIS_TYPE = 0
CLASSIFICATION_TYPE = U
NORAD_CAT_ID   = 270250
ELEMENT_SET_NO = 999
REV_AT_EPOCH   = 26902
BSTAR          = .11027645E-1
MEAN_MOTION_DOT = .2039E-4
MEAN_MOTION_DDOT = 0

CCSDS_OMM_VERS = 2.0
CREATION_DATE  = 
ORIGINATOR     = 

OBJECT_NAME    = UNKNOWN
OBJECT_ID      = 
CENTER_NAME    = EARTH
REF_FRAME      = TEME
TIME_SYSTEM    = UTC
MEAN_ELEMENT_THEORY = SGP/SGP4

EPOCH          = 2026-01-21T13:06:47.747808
MEAN_MOTION    = 11.48806657
ECCENTRICITY   = .06809083
INCLINATION    = 102.3074
RA_OF_ASC_NODE = 308.4010
ARG_OF_PERICENTER = 98.9475
MEAN_ANOMALY   = 268.9186

EPHEMERIS_TYPE = 0
CLASSIFICATION_TYPE = U
NORAD_CAT_ID   = 270251
ELEMENT_SET_NO = 999
REV_AT_EPOCH   = 24799
BSTAR          = .12715782E+0
MEAN_MOTION_DOT = .9637E-4
MEAN_MOTION_DDOT = 0

CCSDS_OMM_VERS = 2.0
CREATION_DATE  = 
ORIGINATOR     = 

OBJECT_NAME    = UNKNOWN
OBJECT_ID      = 
CENTER_NAME    = EARTH
REF_FRAME      = TEME
TIME_SYSTEM    = UTC
MEAN_ELEMENT_THEORY = SGP/SGP4

EPOCH          = 2026-01-16T03:58:08.014656
MEAN_MOTION    = 12.62397863
ECCENTRICITY   = .00007629
INCLINATION    = 51.9835
RA_OF_ASC_NODE = 338.3888
ARG_OF_PERICENTER = 30.7414
MEAN_ANOMALY   = 329.3497

EPHEMERIS_TYPE = 0
CLASSIFICATION_TYPE = U
NORAD_CAT_ID   = 270252
ELEMENT_SET_NO = 999
REV_AT_EPOCH   = 27334
BSTAR          = -.30356884E-4
MEAN_MOTION_DOT = -.109E-5
MEAN_MOTION_DDOT = 0

CCSDS_OMM_VERS = 2.0
CREATION_DATE  = 
ORIGINATOR     = 

OBJECT_NAME    = UNKNOWN
OBJECT_ID      = 
CENTER_NAME    = EARTH
REF_FRAME      = TEME
TIME_SYSTEM    = UTC
MEAN_ELEMENT_THEORY = SGP/SGP4

EPOCH          = 2026-01-23T15:22:18.659136
MEAN_MOTION    = 13.00255630
ECCENTRICITY   = .00323629
INCLINATION    = 90.2462
RA_OF_ASC_NODE = 3.6047
ARG_OF_PERICENTER = 256.9326
MEAN_ANOMALY   = 102.8183

EPHEMERIS_TYPE = 0
CLASSIFICATION_TYPE = U
NORAD_CAT_ID   = 270253
ELEMENT_SET_NO = 999
REV_AT_EPOCH   = 28066
BSTAR          = .10363532E-2
MEAN_MOTION_DOT = .321E-5
MEAN_MOTION_DDOT = 0

CCSDS_OMM_VERS = 2.0
CREATION_DATE  = 
ORIGINATOR     = 

OBJECT_NAME    = UNKNOWN
OBJECT_ID      = 
CENTER_NAME    = EARTH
REF_FRAME      = TEME
TIME_SYSTEM    = UTC
MEAN_ELEMENT_THEORY = SGP/SGP4

EPOCH          = 2026-01-26T04:47:51.568224
MEAN_MOTION    = 12.93274318
ECCENTRICITY   = .00325916
INCLINATION    = 90.2462
RA_OF_ASC_NODE = 4.4057
ARG_OF_PERICENTER = 286.5876
MEAN_ANOMALY   = 73.1664

EPHEMERIS_TYPE = 0
CLASSIFICATION_TYPE = U
NORAD_CAT_ID   = 270256
ELEMENT_SET_NO = 999
REV_AT_EPOCH   = 28066
BSTAR          = .77988208E-3
MEAN_MOTION_DOT = .221E-5
MEAN_MOTION_DDOT = 0

CCSDS_OMM_VERS = 2.0
CREATION_DATE  = 
ORIGINATOR     = 

OBJECT_NAME    = UNKNOWN
OBJECT_ID      = 
CENTER_NAME    = EARTH
REF_FRAME      = TEME
TIME_SYSTEM    = UTC
MEAN_ELEMENT_THEORY = SGP/SGP4

EPOCH          = 2026-01-25T01:28:22.184832
MEAN_MOTION    = 14.87766284
ECCENTRICITY   = .00633481
INCLINATION    = 86.0762
RA_OF_ASC_NODE = 308.4407
ARG_OF_PERICENTER = 138.5590
MEAN_ANOMALY   = 222.0465

EPHEMERIS_TYPE = 0
CLASSIFICATION_TYPE = U
NORAD_CAT_ID   = 270257
ELEMENT_SET_NO = 999
REV_AT_EPOCH   = 8537
BSTAR          = .15450414E-1
MEAN_MOTION_DOT = .149061E-2
MEAN_MOTION_DDOT = 0

CCSDS_OMM_VERS = 2.0
CREATION_DATE  = 
ORIGINATOR     = 

OBJECT_NAME    = UNKNOWN
OBJECT_ID      = 
CENTER_NAME    = EARTH
REF_FRAME      = TEME
TIME_SYSTEM    = UTC
MEAN_ELEMENT_THEORY = SGP/SGP4

EPOCH          = 2026-01-24T10:21:35.527680
MEAN_MOTION    = 12.33989514
ECCENTRICITY   = .03495723
INCLINATION    = 82.3683
RA_OF_ASC_NODE = 288.6257
ARG_OF_PERICENTER = 286.8539
MEAN_ANOMALY   = 69.4478

EPHEMERIS_TYPE = 0
CLASSIFICATION_TYPE = U
NORAD_CAT_ID   = 270258
ELEMENT_SET_NO = 999
REV_AT_EPOCH   = 26536
BSTAR          = -.6715444E-2
MEAN_MOTION_DOT = -.1012E-4
MEAN_MOTION_DDOT = 0

CCSDS_OMM_VERS = 2.0
CREATION_DATE  = 
ORIGINATOR     = 

OBJECT_NAME    = UNKNOWN
OBJECT_ID      = 
CENTER_NAME    = EARTH
REF_FRAME      = TEME
TIME_SYSTEM    = UTC
MEAN_ELEMENT_THEORY = SGP/SGP4

EPOCH          = 2026-01-22T10:19:19.552224
MEAN_MOTION    = 12.83394284
ECCENTRICITY   = .03803229
INCLINATION    = 63.2087
RA_OF_ASC_NODE = 276.7396
ARG_OF_PERICENTER = 22.4514
MEAN_ANOMALY   = 339.2637

EPHEMERIS_TYPE = 0
CLASSIFICATION_TYPE = U
NORAD_CAT_ID   = 270261
ELEMENT_SET_NO = 999
REV_AT_EPOCH   = 27546
BSTAR          = .20518562E-2
MEAN_MOTION_DOT = .59E-5
MEAN_MOTION_DDOT = 0

CCSDS_OMM_VERS = 2.0
CREATION_DATE  = 
ORIGINATOR     = 

OBJECT_NAME    = UNKNOWN
OBJECT_ID      = 
CENTER_NAME    = EARTH
REF_FRAME      = TEME
TIME_SYSTEM    = UTC
MEAN_ELEMENT_THEORY = SGP/SGP4

EPOCH          = 2026-01-23T16:40:03.577440
MEAN_MOTION    = 12.95591598
ECCENTRICITY   = .00307019
INCLINATION    = 90.2453
RA_OF_ASC_NODE = 6.0222
ARG_OF_PERICENTER = 188.3988
MEAN_ANOMALY   = 171.6621

EPHEMERIS_TYPE = 0
CLASSIFICATION_TYPE = U
NORAD_CAT_ID   = 270262
ELEMENT_SET_NO = 999
REV_AT_EPOCH   = 27756
BSTAR          = .19870066E-2
MEAN_MOTION_DOT = .57E-5
MEAN_MOTION_DDOT = 0

